[
    {
        "OBJECT_NAME": "COSMOS 2219",
        "OBJECT_ID": "1992-076A",
        "EPOCH": "2026-04-25T20:16:30.074592",
        "MEAN_MOTION": 14.14095892,
        "ECCENTRICITY": 0.0016826,
        "INCLINATION": 71.0595,
        "RA_OF_ASC_NODE": 279.4911,
        "ARG_OF_PERICENTER": 132.3603,
        "MEAN_ANOMALY": 227.8948,
        "EPHEMERIS_TYPE": 0,
        "CLASSIFICATION_TYPE": "U",
        "NORAD_CAT_ID": 22219,
        "ELEMENT_SET_NO": 999,
        "REV_AT_EPOCH": 72504,
        "BSTAR": 0.00022672,
        "MEAN_MOTION_DOT": 3.85e-06,
        "MEAN_MOTION_DDOT": 0
    },
    {
        "OBJECT_NAME": "SL-16 R/B",
        "OBJECT_ID": "1992-076B",
        "EPOCH": "2026-04-25T16:00:36.950976",
        "MEAN_MOTION": 14.16865451,
        "ECCENTRICITY": 0.0012067,
        "INCLINATION": 70.9982,
        "RA_OF_ASC_NODE": 89.4155,
        "ARG_OF_PERICENTER": 13.1404,
        "MEAN_ANOMALY": 159.2988,
        "EPHEMERIS_TYPE": 0,
        "CLASSIFICATION_TYPE": "U",
        "NORAD_CAT_ID": 22220,
        "ELEMENT_SET_NO": 999,
        "REV_AT_EPOCH": 72848,
        "BSTAR": -7.3792e-05,
        "MEAN_MOTION_DOT": -1.96e-06,
        "MEAN_MOTION_DDOT": 0
    },
    {
        "OBJECT_NAME": "COSMOS 2221",
        "OBJECT_ID": "1992-080A",
        "EPOCH": "2026-04-25T18:47:31.547328",
        "MEAN_MOTION": 14.9638848,
        "ECCENTRICITY": 0.0014983,
        "INCLINATION": 82.5046,
        "RA_OF_ASC_NODE": 233.9601,
        "ARG_OF_PERICENTER": 39.5394,
        "MEAN_ANOMALY": 320.6918,
        "EPHEMERIS_TYPE": 0,
        "CLASSIFICATION_TYPE": "U",
        "NORAD_CAT_ID": 22236,
        "ELEMENT_SET_NO": 999,
        "REV_AT_EPOCH": 78783,
        "BSTAR": 0.00013659,
        "MEAN_MOTION_DOT": 1.576e-05,
        "MEAN_MOTION_DDOT": 0
    },
    {
        "OBJECT_NAME": "SL-16 R/B",
        "OBJECT_ID": "1992-093B",
        "EPOCH": "2026-04-25T19:20:09.784320",
        "MEAN_MOTION": 14.15457616,
        "ECCENTRICITY": 0.0006148,
        "INCLINATION": 71.021,
        "RA_OF_ASC_NODE": 265.3535,
        "ARG_OF_PERICENTER": 245.8937,
        "MEAN_ANOMALY": 114.1543,
        "EPHEMERIS_TYPE": 0,
        "CLASSIFICATION_TYPE": "U",
        "NORAD_CAT_ID": 22285,
        "ELEMENT_SET_NO": 999,
        "REV_AT_EPOCH": 71982,
        "BSTAR": 0.00020429,
        "MEAN_MOTION_DOT": 3.51e-06,
        "MEAN_MOTION_DDOT": 0
    },
    {
        "OBJECT_NAME": "COSMOS 2228",
        "OBJECT_ID": "1992-094A",
        "EPOCH": "2026-04-25T20:01:38.343648",
        "MEAN_MOTION": 14.97411057,
        "ECCENTRICITY": 0.0019034,
        "INCLINATION": 82.5202,
        "RA_OF_ASC_NODE": 192.1773,
        "ARG_OF_PERICENTER": 140.0354,
        "MEAN_ANOMALY": 220.2274,
        "EPHEMERIS_TYPE": 0,
        "CLASSIFICATION_TYPE": "U",
        "NORAD_CAT_ID": 22286,
        "ELEMENT_SET_NO": 999,
        "REV_AT_EPOCH": 78311,
        "BSTAR": 0.00015643,
        "MEAN_MOTION_DOT": 1.851e-05,
        "MEAN_MOTION_DDOT": 0
    },
    {
        "OBJECT_NAME": "SL-16 R/B",
        "OBJECT_ID": "1993-016B",
        "EPOCH": "2026-04-25T08:32:45.940128",
        "MEAN_MOTION": 14.1530994,
        "ECCENTRICITY": 0.0012577,
        "INCLINATION": 71.0038,
        "RA_OF_ASC_NODE": 117.1704,
        "ARG_OF_PERICENTER": 255.2777,
        "MEAN_ANOMALY": 104.6952,
        "EPHEMERIS_TYPE": 0,
        "CLASSIFICATION_TYPE": "U",
        "NORAD_CAT_ID": 22566,
        "ELEMENT_SET_NO": 999,
        "REV_AT_EPOCH": 70877,
        "BSTAR": -0.00010895,
        "MEAN_MOTION_DOT": -2.6e-06,
        "MEAN_MOTION_DDOT": 0
    },
    {
        "OBJECT_NAME": "COSMOS 2242",
        "OBJECT_ID": "1993-024A",
        "EPOCH": "2026-04-25T18:29:33.175968",
        "MEAN_MOTION": 14.96743392,
        "ECCENTRICITY": 0.0017285,
        "INCLINATION": 82.5203,
        "RA_OF_ASC_NODE": 221.6775,
        "ARG_OF_PERICENTER": 143.3813,
        "MEAN_ANOMALY": 216.8595,
        "EPHEMERIS_TYPE": 0,
        "CLASSIFICATION_TYPE": "U",
        "NORAD_CAT_ID": 22626,
        "ELEMENT_SET_NO": 999,
        "REV_AT_EPOCH": 78743,
        "BSTAR": 0.00014494,
        "MEAN_MOTION_DOT": 1.687e-05,
        "MEAN_MOTION_DDOT": 0
    },
    {
        "OBJECT_NAME": "SL-16 R/B",
        "OBJECT_ID": "1993-059B",
        "EPOCH": "2026-04-25T20:04:58.197216",
        "MEAN_MOTION": 14.17238794,
        "ECCENTRICITY": 0.0015845,
        "INCLINATION": 70.9893,
        "RA_OF_ASC_NODE": 271.7001,
        "ARG_OF_PERICENTER": 144.5873,
        "MEAN_ANOMALY": 215.6306,
        "EPHEMERIS_TYPE": 0,
        "CLASSIFICATION_TYPE": "U",
        "NORAD_CAT_ID": 22803,
        "ELEMENT_SET_NO": 999,
        "REV_AT_EPOCH": 68621,
        "BSTAR": 9.7292e-05,
        "MEAN_MOTION_DOT": 1.49e-06,
        "MEAN_MOTION_DDOT": 0
    },
    {
        "OBJECT_NAME": "ARIANE 40 R/B",
        "OBJECT_ID": "1993-061H",
        "EPOCH": "2026-04-25T18:20:07.098720",
        "MEAN_MOTION": 14.32884303,
        "ECCENTRICITY": 0.0011601,
        "INCLINATION": 98.4844,
        "RA_OF_ASC_NODE": 183.7037,
        "ARG_OF_PERICENTER": 140.5762,
        "MEAN_ANOMALY": 219.6269,
        "EPHEMERIS_TYPE": 0,
        "CLASSIFICATION_TYPE": "U",
        "NORAD_CAT_ID": 22830,
        "ELEMENT_SET_NO": 999,
        "REV_AT_EPOCH": 70084,
        "BSTAR": 7.0616e-05,
        "MEAN_MOTION_DOT": 1.5e-06,
        "MEAN_MOTION_DDOT": 0
    },
    {
        "OBJECT_NAME": "COSMOS 2278",
        "OBJECT_ID": "1994-023A",
        "EPOCH": "2026-04-25T15:05:37.656384",
        "MEAN_MOTION": 14.14387264,
        "ECCENTRICITY": 0.0010488,
        "INCLINATION": 71.0534,
        "RA_OF_ASC_NODE": 76.8888,
        "ARG_OF_PERICENTER": 308.0079,
        "MEAN_ANOMALY": 52.0095,
        "EPHEMERIS_TYPE": 0,
        "CLASSIFICATION_TYPE": "U",
        "NORAD_CAT_ID": 23087,
        "ELEMENT_SET_NO": 999,
        "REV_AT_EPOCH": 65144,
        "BSTAR": 0.00012985,
        "MEAN_MOTION_DOT": 2.01e-06,
        "MEAN_MOTION_DDOT": 0
    },
    {
        "OBJECT_NAME": "SL-16 R/B",
        "OBJECT_ID": "1994-023B",
        "EPOCH": "2026-04-25T19:05:38.417856",
        "MEAN_MOTION": 14.15015285,
        "ECCENTRICITY": 0.0005134,
        "INCLINATION": 71.0001,
        "RA_OF_ASC_NODE": 331.9621,
        "ARG_OF_PERICENTER": 241.9391,
        "MEAN_ANOMALY": 118.1212,
        "EPHEMERIS_TYPE": 0,
        "CLASSIFICATION_TYPE": "U",
        "NORAD_CAT_ID": 23088,
        "ELEMENT_SET_NO": 999,
        "REV_AT_EPOCH": 65275,
        "BSTAR": 9.8274e-07,
        "MEAN_MOTION_DOT": -4.6e-07,
        "MEAN_MOTION_DDOT": 0
    },
    {
        "OBJECT_NAME": "SL-16 R/B",
        "OBJECT_ID": "1994-074B",
        "EPOCH": "2026-04-25T16:10:58.860768",
        "MEAN_MOTION": 14.79455989,
        "ECCENTRICITY": 0.0008017,
        "INCLINATION": 97.7038,
        "RA_OF_ASC_NODE": 144.5737,
        "ARG_OF_PERICENTER": 72.9404,
        "MEAN_ANOMALY": 41.3522,
        "EPHEMERIS_TYPE": 0,
        "CLASSIFICATION_TYPE": "U",
        "NORAD_CAT_ID": 23343,
        "ELEMENT_SET_NO": 999,
        "REV_AT_EPOCH": 69419,
        "BSTAR": 5.3546e-05,
        "MEAN_MOTION_DOT": 3.51e-06,
        "MEAN_MOTION_DDOT": 0
    },
    {
        "OBJECT_NAME": "SL-16 R/B",
        "OBJECT_ID": "1994-077B",
        "EPOCH": "2026-04-25T19:54:28.234080",
        "MEAN_MOTION": 14.15572431,
        "ECCENTRICITY": 3.98e-05,
        "INCLINATION": 70.9828,
        "RA_OF_ASC_NODE": 253.3112,
        "ARG_OF_PERICENTER": 119.2966,
        "MEAN_ANOMALY": 240.8196,
        "EPHEMERIS_TYPE": 0,
        "CLASSIFICATION_TYPE": "U",
        "NORAD_CAT_ID": 23405,
        "ELEMENT_SET_NO": 999,
        "REV_AT_EPOCH": 62290,
        "BSTAR": 6.2361e-05,
        "MEAN_MOTION_DOT": 7.4e-07,
        "MEAN_MOTION_DDOT": 0
    }
]